{"type": "FeatureCollection", "features": [ {"type": "Feature", "properties": {"norad_id": 67070, "name": "DEAR-5", "group": "last-30-days", "lat": 5.583485420092591, "lon": -158.7654958626929, "alt_km": 507.011086352064, "timestamp": "2025-12-25T16:53:13.375565+00:00", "meta": {"OBJECT_NAME": "DEAR-5", "OBJECT_ID": "2025-296B", "EPOCH": "2025-12-23T23:03:08.623008", "MEAN_MOTION": 15.16917161, "ECCENTRICITY": 0.0016166, "INCLINATION": 41.3551, "RA_OF_ASC_NODE": 37.5614, "ARG_OF_PERICENTER": 107.8349, "MEAN_ANOMALY": 252.4237, "EPHEMERIS_TYPE": 0, "CLASSIFICATION_TYPE": "U", "NORAD_CAT_ID": 67070, "ELEMENT_SET_NO": 999, "REV_AT_EPOCH": 165, "BSTAR": 0.0002755, "MEAN_MOTION_DOT": 5.352e-05, "MEAN_MOTION_DDOT": 0}, "tle": {"line1": "1 67070U 25296B   25357.96051647  .00005352  00000+0  27550-3 0  9990", "line2": "2 67070  41.3551  37.5614 0016166 107.8349 252.4237 15.16917161  1654"}}, "geometry": {"type": "Point", "coordinates": [-158.7654958626929, 5.583485420092591]}}, {"type": "Feature", "properties": {"norad_id": 67071, "name": "KZ-11 R/B", "group": "last-30-days", "lat": -30.694783093909834, "lon": -14.229615885365282, "alt_km": 280.6996066208494, "timestamp": "2025-12-25T16:53:13.375575+00:00", "meta": {"OBJECT_NAME": "KZ-11 R/B", "OBJECT_ID": "2025-296C", "EPOCH": "2025-12-24T07:54:11.602080", "MEAN_MOTION": 15.73894626, "ECCENTRICITY": 0.03315074, "INCLINATION": 41.3001, "RA_OF_ASC_NODE": 37.0775, "ARG_OF_PERICENTER": 35.4688, "MEAN_ANOMALY": 326.7718, "EPHEMERIS_TYPE": 0, "CLASSIFICATION_TYPE": "U", "NORAD_CAT_ID": 67071, "ELEMENT_SET_NO": 999, "REV_AT_EPOCH": 169, "BSTAR": 0.00038975112, "MEAN_MOTION_DOT": 0.10609436, "MEAN_MOTION_DDOT": 7.766669e-06}, "tle": {"line1": "1 67071U 25296C   25358.32930095  .10609436  77667-5  38975-3 0  9991", "line2": "2 67071  41.3001  37.0775 0331507  35.4688 326.7718 15.73894626  1695"}}, "geometry": {"type": "Point", "coordinates": [-14.229615885365282, -30.694783093909834]}}, {"type": "Feature", "properties": {"norad_id": 67073, "name": "RAISE-4", "group": "last-30-days", "lat": -43.343352846267514, "lon": 154.03131544953172, "alt_km": 545.5842359367944, "timestamp": "2025-12-25T16:53:13.375586+00:00", "meta": {"OBJECT_NAME": "RAISE-4", "OBJECT_ID": "2025-297B", "EPOCH": "2025-12-25T04:20:03.382080", "MEAN_MOTION": 15.07229079, "ECCENTRICITY": 0.00115943, "INCLINATION": 97.4854, "RA_OF_ASC_NODE": 146.3942, "ARG_OF_PERICENTER": 274.0977, "MEAN_ANOMALY": 85.8926, "EPHEMERIS_TYPE": 0, "CLASSIFICATION_TYPE": "U", "NORAD_CAT_ID": 67073, "ELEMENT_SET_NO": 999, "REV_AT_EPOCH": 166, "BSTAR": 0.00035202727, "MEAN_MOTION_DOT": 5.251e-05, "MEAN_MOTION_DDOT": 0}, "tle": {"line1": "1 67073U 25297B   25359.18059470  .00005251  00000+0  35203-3 0  9994", "line2": "2 67073  97.4854 146.3942 0011594 274.0977  85.8926 15.07229079  1660"}}, "geometry": {"type": "Point", "coordinates": [154.03131544953172, -43.343352846267514]}}, {"type": "Feature", "properties": {"norad_id": 67074, "name": "ELECTRON KICK STAGE R/B", "group": "last-30-days", "lat": -23.62946514793706, "lon": -35.501290182913905, "alt_km": 271.3796303349545, "timestamp": "2025-12-25T16:53:13.375596+00:00", "meta": {"OBJECT_NAME": "ELECTRON KICK STAGE R/B", "OBJECT_ID": "2025-297C", "EPOCH": "2025-12-24T23:04:16.759776", "MEAN_MOTION": 15.59630537, "ECCENTRICITY": 0.01905487, "INCLINATION": 97.4822, "RA_OF_ASC_NODE": 147.0126, "ARG_OF_PERICENTER": 225.1544, "MEAN_ANOMALY": 133.4098, "EPHEMERIS_TYPE": 0, "CLASSIFICATION_TYPE": "U", "NORAD_CAT_ID": 67074, "ELEMENT_SET_NO": 999, "REV_AT_EPOCH": 168, "BSTAR": 0.0017941165, "MEAN_MOTION_DOT": 0.00352388, "MEAN_MOTION_DDOT": 3.5753427e-05}, "tle": {"line1": "1 67074U 25297C   25358.96130509  .00352388  35753-4  17941-2 0  9995", "line2": "2 67074  97.4822 147.0126 0190548 225.1544 133.4098 15.59630537  1686"}}, "geometry": {"type": "Point", "coordinates": [-35.501290182913905, -23.62946514793706]}}, {"type": "Feature", "properties": {"norad_id": 67075, "name": "STARLINK-36230", "group": "last-30-days", "lat": -6.92464583310584, "lon": -149.41859679885388, "alt_km": 336.15508239057726, "timestamp": "2025-12-25T16:53:13.375606+00:00", "meta": {"OBJECT_NAME": "STARLINK-36230", "OBJECT_ID": "2025-298A", "EPOCH": "2025-12-25T06:00:04.000320", "MEAN_MOTION": 15.80770838, "ECCENTRICITY": 0.0003813, "INCLINATION": 69.9965, "RA_OF_ASC_NODE": 214.4109, "ARG_OF_PERICENTER": 272.0136, "MEAN_ANOMALY": 21.7182, "EPHEMERIS_TYPE": 0, "CLASSIFICATION_TYPE": "U", "NORAD_CAT_ID": 67075, "ELEMENT_SET_NO": 999, "REV_AT_EPOCH": 298, "BSTAR": -0.010510932, "MEAN_MOTION_DOT": -0.01787436, "MEAN_MOTION_DDOT": 0}, "tle": {"line1": "1 67075U 25298A   25359.25004630 -.01787436  00000+0 -10511-1 0  9991", "line2": "2 67075  69.9965 214.4109 0003813 272.0136  21.7182 15.80770838  2985"}}, "geometry": {"type": "Point", "coordinates": [-149.41859679885388, -6.92464583310584]}}, {"type": "Feature", "properties": {"norad_id": 67076, "name": "STARLINK-36240", "group": "last-30-days", "lat": -5.1078120402128775, "lon": -148.75128963516468, "alt_km": 336.1258808459179, "timestamp": "2025-12-25T16:53:13.375616+00:00", "meta": {"OBJECT_NAME": "STARLINK-36240", "OBJECT_ID": "2025-298B", "EPOCH": "2025-12-25T06:00:04.000320", "MEAN_MOTION": 15.80769689, "ECCENTRICITY": 0.0003752, "INCLINATION": 69.9966, "RA_OF_ASC_NODE": 214.4084, "ARG_OF_PERICENTER": 269.7164, "MEAN_ANOMALY": 25.9501, "EPHEMERIS_TYPE": 0, "CLASSIFICATION_TYPE": "U", "NORAD_CAT_ID": 67076, "ELEMENT_SET_NO": 999, "REV_AT_EPOCH": 298, "BSTAR": -0.010492154, "MEAN_MOTION_DOT": -0.01784469, "MEAN_MOTION_DDOT": 0}, "tle": {"line1": "1 67076U 25298B   25359.25004630 -.01784469  00000+0 -10492-1 0  9993", "line2": "2 67076  69.9966 214.4084 0003752 269.7164  25.9501 15.80769689  2988"}}, "geometry": {"type": "Point", "coordinates": [-148.75128963516468, -5.1078120402128775]}}, {"type": "Feature", "properties": {"norad_id": 67077, "name": "STARLINK-36243", "group": "last-30-days", "lat": -3.0314702096089494, "lon": -147.9933069281633, "alt_km": 335.8711225006746, "timestamp": "2025-12-25T16:53:13.375626+00:00", "meta": {"OBJECT_NAME": "STARLINK-36243", "OBJECT_ID": "2025-298C", "EPOCH": "2025-12-25T06:00:04.000320", "MEAN_MOTION": 15.80759256, "ECCENTRICITY": 0.00037818, "INCLINATION": 69.9963, "RA_OF_ASC_NODE": 214.4058, "ARG_OF_PERICENTER": 272.5449, "MEAN_ANOMALY": 25.3519, "EPHEMERIS_TYPE": 0, "CLASSIFICATION_TYPE": "U", "NORAD_CAT_ID": 67077, "ELEMENT_SET_NO": 999, "REV_AT_EPOCH": 298, "BSTAR": -0.010520122, "MEAN_MOTION_DOT": -0.01787931, "MEAN_MOTION_DDOT": 0}, "tle": {"line1": "1 67077U 25298C   25359.25004630 -.01787931  00000+0 -10520-1 0  9993", "line2": "2 67077  69.9963 214.4058 0003781 272.5449  25.3519 15.80759256  2989"}}, "geometry": {"type": "Point", "coordinates": [-147.9933069281633, -3.0314702096089494]}}, {"type": "Feature", "properties": {"norad_id": 67078, "name": "STARLINK-36236", "group": "last-30-days", "lat": -1.326531101038465, "lon": -147.37336146145614, "alt_km": 335.7820007837945, "timestamp": "2025-12-25T16:53:13.375638+00:00", "meta": {"OBJECT_NAME": "STARLINK-36236", "OBJECT_ID": "2025-298D", "EPOCH": "2025-12-25T06:00:04.000320", "MEAN_MOTION": 15.80761647, "ECCENTRICITY": 0.00038982, "INCLINATION": 69.9965, "RA_OF_ASC_NODE": 214.4036, "ARG_OF_PERICENTER": 271.0766, "MEAN_ANOMALY": 28.6269, "EPHEMERIS_TYPE": 0, "CLASSIFICATION_TYPE": "U", "NORAD_CAT_ID": 67078, "ELEMENT_SET_NO": 999, "REV_AT_EPOCH": 298, "BSTAR": -0.010501497, "MEAN_MOTION_DOT": -0.01785448, "MEAN_MOTION_DDOT": 0}, "tle": {"line1": "1 67078U 25298D   25359.25004630 -.01785448  00000+0 -10501-1 0  9994", "line2": "2 67078  69.9965 214.4036 0003898 271.0766  28.6269 15.80761647  2988"}}, "geometry": {"type": "Point", "coordinates": [-147.37336146145614, -1.326531101038465]}}, {"type": "Feature", "properties": {"norad_id": 67079, "name": "STARLINK-36159", "group": "last-30-days", "lat": 0.7623858530479801, "lon": -146.61462016012163, "alt_km": 335.5779812816827, "timestamp": "2025-12-25T16:53:13.375650+00:00", "meta": {"OBJECT_NAME": "STARLINK-36159", "OBJECT_ID": "2025-298E", "EPOCH": "2025-12-25T06:00:04.000320", "MEAN_MOTION": 15.80749966, "ECCENTRICITY": 0.00038302, "INCLINATION": 69.9966, "RA_OF_ASC_NODE": 214.4012, "ARG_OF_PERICENTER": 272.2926, "MEAN_ANOMALY": 29.6525, "EPHEMERIS_TYPE": 0, "CLASSIFICATION_TYPE": "U", "NORAD_CAT_ID": 67079, "ELEMENT_SET_NO": 999, "REV_AT_EPOCH": 298, "BSTAR": -0.010498708, "MEAN_MOTION_DOT": -0.01784101, "MEAN_MOTION_DDOT": 0}, "tle": {"line1": "1 67079U 25298E   25359.25004630 -.01784101  00000+0 -10499-1 0  9996", "line2": "2 67079  69.9966 214.4012 0003830 272.2926  29.6525 15.80749966  2987"}}, "geometry": {"type": "Point", "coordinates": [-146.61462016012163, 0.7623858530479801]}}, {"type": "Feature", "properties": {"norad_id": 67080, "name": "STARLINK-36158", "group": "last-30-days", "lat": 2.756044058387159, "lon": -145.89020086254527, "alt_km": 335.46877008694446, "timestamp": "2025-12-25T16:53:13.375660+00:00", "meta": {"OBJECT_NAME": "STARLINK-36158", "OBJECT_ID": "2025-298F", "EPOCH": "2025-12-25T06:00:04.000320", "MEAN_MOTION": 15.80744389, "ECCENTRICITY": 0.00039132, "INCLINATION": 69.9963, "RA_OF_ASC_NODE": 214.3985, "ARG_OF_PERICENTER": 271.3908, "MEAN_ANOMALY": 32.6863, "EPHEMERIS_TYPE": 0, "CLASSIFICATION_TYPE": "U", "NORAD_CAT_ID": 67080, "ELEMENT_SET_NO": 999, "REV_AT_EPOCH": 292, "BSTAR": -0.010520276, "MEAN_MOTION_DOT": -0.01787018, "MEAN_MOTION_DDOT": 0}, "tle": {"line1": "1 67080U 25298F   25359.25004630 -.01787018  00000+0 -10520-1 0  9993", "line2": "2 67080  69.9963 214.3985 0003913 271.3908  32.6863 15.80744389  2923"}}, "geometry": {"type": "Point", "coordinates": [-145.89020086254527, 2.756044058387159]}}]}